FLOCK 3P-28             
1 41960U 17008N   17345.90301308  .00002317  00000-0  99873-4 0  9993
2 41960  97.4753  46.6384 0007090 291.8376  68.2107 15.23576754 45503
